GOES 18                 
1 51850U 22021A   23037.56412972  .00000101  00000+0  00000+0 0  9997
2 51850   0.0010 358.4488 0000396 309.1636 254.8857  1.00271240  3489
CHINASAT 6D             
1 52255U 22038A   23037.32718175 -.00000350  00000+0  00000+0 0  9990
2 52255   0.0166 262.6281 0001678  53.9893  62.3968  1.00269627  3145
NILESAT 301             
1 52817U 22061A   23037.37259466 -.00000054  00000+0  00000+0 0  9999
2 52817   0.0454 352.7050 0005859 336.0199 294.6110  1.00272640  2443
CMS-02 (GSAT 24)        
1 52903U 22067A   23037.46228736 -.00000161  00000+0  00000+0 0  9996
2 52903   0.1055 271.0826 0004510 167.3317 307.2919  1.00273883  2315
MEASAT 3D               
1 52904U 22067B   23037.56091078 -.00000237  00000+0  00000+0 0  9999
2 52904   0.0660 290.1273 0003286  17.6460 122.0778  1.00271600  2344
SES-22                  
1 52933U 22071A   23037.56582987  .00000093  00000+0  00000+0 0  9999
2 52933   0.0023  24.8814 0002934 283.6933 256.5196  1.00271839  2241
WFOV (USA 332)          
1 52940U 22073A   23037.46952205 -.00000359  00000+0  00000+0 0  9998
2 52940   0.5443  96.3807 0004205 227.4273 100.7229  1.00266220  2067
TIANLIAN 2-03           
1 53100U 22078A   23037.37599410  .00000076  00000+0  00000+0 0  9992
2 53100   2.4990 282.7560 0001927 106.7164 252.6881  1.00270487  2248
SBIRS GEO-6 (USA 336)   
1 53355U 22092A   23037.55171457  .00000125  00000+0  00000+0 0  9992
2 53355   6.2175 311.6363 0003542 352.4812 245.8943  1.00272744  1931
CHINASAT 1E (ZX 1E)     
1 53813U 22112A   23036.10674444 -.00000145  00000+0  00000+0 0  9991
2 53813   1.1515 278.8134 0003125  32.8170 303.1184  1.00269725  1520
SES-20                  
1 53960U 22123A   23037.52688453 -.00000097  00000+0  00000+0 0  9994
2 53960   0.0456 124.1994 0001488 188.8980 269.8572  1.00274547  1249
SES-21                  
1 53961U 22123B   23037.57076865  .00000074  00000+0  00000+0 0  9992
2 53961   0.0197  61.5832 0001008 256.5472 252.7354  1.00270808  1261
GALAXY 33 (G-33)        
1 54026U 22128A   23037.56918615  .00000084  00000+0  00000+0 0  9998
2 54026   0.0215  98.2289 0001982 225.4925 244.6192  1.00271005  1458
GALAXY 34 (G-34)        
1 54027U 22128B   23036.98101634  .00000063  00000+0  00000+0 0  9996
2 54027   0.0146  79.9108 0002203 343.7937 296.2891  1.00271566  1611
ANGOSAT 2               
1 54033U 22131A   23037.30687231  .00000139  00000+0  00000+0 0  9990
2 54033   0.0206 181.9015 0000076  92.4216 355.2853  1.00270275  1160
CHINASAT 19 (ZX 19)     
1 54230U 22148A   23037.67267449 -.00000076  00000+0  00000+0 0  9993
2 54230   0.0072 125.0346 0006956 150.2446 266.7867  1.00270564  1068
GALAXY 31 (G-31)        
1 54243U 22153A   23037.58426382  .00000018  00000+0  00000+0 0  9991
2 54243   0.0509 243.9471 0003282  47.2147 294.6023  1.00273621   844
GALAXY 32 (G-32)        
1 54244U 22153B   23037.59614514 -.00000106  00000+0  00000+0 0  9998
2 54244   0.0231 307.7920 0003024  31.3340 260.7202  1.00696301   856
METEOSAT-12 (MTG-1)     
1 54743U 22170C   23037.30164242 -.00000027  00000+0  00000+0 0  9990
2 54743   0.8783 299.9670 0002166  87.2019 214.2005  1.00264999   672
